GLOBAL-13               
1 49773U 21115BB  22031.61216925  .00018944  00000+0  39635-3 0  9994
2 49773  53.2155  34.3968 0015410 111.3974 248.8680 15.45408474  9370
GSAT0223 (GALILEO 27)   
1 49809U 21116A   22023.05936816 -.00000049  00000+0  00000+0 0  9990
2 49809  57.1654  25.0435 0022758  77.9559 282.0666  1.68520531   815
GSAT0224 (GALILEO 28)   
1 49810U 21116B   22031.82765971 -.00000074  00000+0  00000+0 0  9996
2 49810  57.1196  24.7828 0002096 258.9822 278.8965  1.70475553   975
2021-117A               
1 49812U 21117A   22031.89805861  .00004694  00000+0  19181-3 0  9994
2 49812  97.3991 109.2432 0014867 100.1565  12.5498 15.24763452  8498
2021-117B               
1 49813U 21117B   22031.85418933  .00005263  00000+0  21755-3 0  9994
2 49813  97.3988 109.1589 0014016  91.5041  47.0606 15.24329987  8489
2021-117C               
1 49814U 21117C   22031.90732459  .00008109  00000+0  32979-3 0  9995
2 49814  97.3998 109.2331 0015544  93.1757  23.5800 15.24683986  8494
2021-117D               
1 49815U 21117D   22031.57097248  .00002023  00000+0  87785-4 0  9994
2 49815  97.4004 108.9221 0012214  96.7880  17.9826 15.23432106  8440
2021-117E               
1 49816U 21117E   22031.93069725  .00009348  00000+0  36547-3 0  9990
2 49816  97.3997 109.3548 0018488 103.1986  11.8482 15.25911481  8505
STPSAT-6                
1 49817U 21118A   22031.66620987 -.00000056  00000+0  00000+0 0  9994
2 49817   0.0353 224.6802 0000348 118.4286 275.9184  1.00270832   549
LDPE-1                  
1 49818U 21118B   22032.05721237  .00000035  00000+0  00000+0 0  9995
2 49818   0.1205 115.2735 0001298 345.3980 260.6801  1.01229070   551
GLOBAL-17               
1 49949U 21120A   22031.76176009  .00019593  00000+0  40990-3 0  9996
2 49949  42.0148  56.4252 0006465 285.5541  74.4587 15.45027366  8317
GLOBAL-16               
1 49950U 21120B   22031.41852041  .00017983  00000+0  36909-3 0  9993
2 49950  42.0147  58.1705 0008790 282.2828  77.7030 15.45614697  8256
IXPE                    
1 49954U 21121A   22021.17493969  .00001856  00000+0  10845-3 0  9993
2 49954   0.2314  23.3264 0011263 290.6895  45.8918 14.90810002  6405
SHIJIAN-6 05A (SJ-6 05A)
1 49961U 21122A   22032.15778906  .00005971  00000+0  18300-3 0  9995
2 49961  97.3539  49.4011 0013551  73.5480 352.2190 15.34076113  8144
SHIJIAN-6 05B (SJ-6 05B)
1 49962U 21122B   22032.15762799  .00002758  00000+0  85872-4 0  9998
2 49962  97.3535  49.4050 0013302  73.9468 351.8774 15.34064174  8145
2021-123A               
1 50001U 21123A   22031.43626029 -.00000283  00000+0  00000+0 0  9997
2 50001   0.7664 271.3083 2910827 178.7340 302.9130  0.99645408   524
2021-123B               
1 50002U 21123B   22031.60000000 -.00000352  00000+0  00000+0 0  9999
2 50002   0.6660 270.7250 2915190 183.5960 359.6260  1.00442143   492
TIANLIAN 2-02           
1 50005U 21124A   22031.90597010 -.00000023  00000+0  00000+0 0  9993
2 50005   2.8856 284.2900 0002207  12.4861 331.4663  1.00274527   597
STARLINK-3317           
1 50156U 21125A   22031.91668981 -.00530585  00000+0 -40668-2 0  9997
2 50156  53.2172 145.9261 0001569  33.8838  39.9239 15.72928243  3697
STARLINK-3313           
1 50157U 21125B   22031.91668981 -.00655544  00000+0 -12410-1 0  9994
2 50157  53.2171 147.2543 0001456  46.3134  65.6763 15.50179086  7194
STARLINK-3309           
1 50158U 21125C   22031.91668981 -.00655681  00000+0 -12260-1 0  9990
2 50158  53.2171 147.2511 0001661  40.5366  94.5708 15.50524490  7194
STARLINK-3297           
1 50159U 21125D   22031.91668981 -.00656040  00000+0 -12217-1 0  9993
2 50159  53.2171 147.2500 0001590  43.4320  99.3131 15.50639807  3699
STARLINK-3288           
1 50160U 21125E   22031.91668981 -.00655582  00000+0 -12309-1 0  9997
2 50160  53.2171 147.2522 0001519  45.2446  82.1910 15.50409335  3691
STARLINK-3304           
1 50161U 21125F   22031.91668981 -.00655638  00000+0 -12361-1 0  9998
2 50161  53.2171 147.2533 0001469  45.9296  73.8000 15.50294229  3699
STARLINK-3303           
1 50162U 21125G   22031.91668981  .00039841  00000+0  23038-3 0  9994
2 50162  53.2190 145.3738 0003638   3.4022 350.2776 15.78229832  3693
STARLINK-3306           
1 50163U 21125H   22031.91668981 -.00304604  00000+0 -24712-2 0  9998
2 50163  53.2172 145.8612 0001604  35.7765  67.2924 15.70946291  3689
STARLINK-3307           
1 50164U 21125J   22031.91668981 -.00058501  00000+0 -41422-3 0  9999
2 50164  53.2172 145.9330 0002148  24.8498  55.8018 15.73257734  3692
STARLINK-3298           
1 50165U 21125K   22031.91668981 -.00656248  00000+0 -12171-1 0  9999
2 50165  53.2171 147.2487 0001559  45.5056 104.8432 15.50755020  3696
STARLINK-3305           
1 50166U 21125L   22031.91668981  .00021258  00000+0  15546-3 0  9996
2 50166  53.2167 145.9257 0002018  28.8757  54.6604 15.73205176  3695
STARLINK-3271           
1 50167U 21125M   22031.91668981 -.00656712  00000+0 -12080-1 0  9996
2 50167  53.2172 147.2460 0001588  45.5387 119.9152 15.50985521  3696
STARLINK-3296           
1 50168U 21125N   22031.91668981  .00014765  00000+0  10948-3 0  9994
2 50168  53.2174 145.9253 0001940  18.9078  65.5693 15.73189414  3695
STARLINK-3301           
1 50169U 21125P   22031.91668981 -.00084456  00000+0 -60189-3 0  9993
2 50169  53.2168 145.9099 0002323  21.4804  70.4532 15.73253830  3690
STARLINK-3245           
1 50170U 21125Q   22031.91668981 -.00061778  00000+0 -43795-3 0  9991
2 50170  53.2164 145.9193 0002162  25.6560  60.6335 15.73251743  3692
STARLINK-3286           
1 50171U 21125R   22031.91668981 -.00088704  00000+0 -63256-3 0  9994
2 50171  53.2167 145.9281 0002308  29.9175  52.6569 15.73259429  3694
STARLINK-3287           
1 50172U 21125S   22031.91668981 -.00060996  00000+0 -43280-3 0  9993
2 50172  53.2182 145.9137 0002161  25.7906  62.4588 15.73225733  3696
STARLINK-3289           
1 50173U 21125T   22031.91668981 -.00312103  00000+0 -23644-2 0  9995
2 50173  53.2172 145.8367 0001827 336.2376 142.4419 15.72581647  3688
STARLINK-3292           
1 50174U 21125U   22031.91668981 -.00053877  00000+0 -38097-3 0  9995
2 50174  53.2183 145.9087 0002296  29.9690  61.0005 15.73253825  3690
STARLINK-3291           
1 50175U 21125V   22031.91668981  .00019180  00000+0  14068-3 0  9995
2 50175  53.2166 145.9220 0002110  31.9299  53.3830 15.73213815  3699
STARLINK-3293           
1 50176U 21125W   22031.91668981 -.00021202  00000+0 -14691-3 0  9998
2 50176  53.2167 145.9122 0002164  31.1182  58.9782 15.73214053  3696
STARLINK-3282           
1 50177U 21125X   22031.91668981 -.00015375  00000+0 -10530-3 0  9991
2 50177  53.2170 145.9194 0002265  20.0338  67.2271 15.73201809  3693
STARLINK-3284           
1 50178U 21125Y   22031.91668981  .00020481  00000+0  14993-3 0  9991
2 50178  53.2182 145.8948 0002155  25.5582  72.0282 15.73208971  3695
STARLINK-3283           
1 50179U 21125Z   22031.91668981  .00019683  00000+0  14436-3 0  9996
2 50179  53.2169 145.9156 0002075  17.5736  71.5971 15.73194391  3695
STARLINK-3265           
1 50180U 21125AA  22031.91668981 -.00069776  00000+0 -49550-3 0  9993
2 50180  53.2181 145.9044 0002093  24.9307  67.9083 15.73261218  3699
STARLINK-3285           
1 50181U 21125AB  22031.91668981  .00009181  00000+0  69772-4 0  9995
2 50181  53.2180 145.9009 0002179  24.5689  70.2007 15.73198255  3697
STARLINK-3277           
1 50182U 21125AC  22031.91668981 -.00059087  00000+0 -41838-3 0  9990
2 50182  53.2179 145.8958 0002036  34.2478  62.3059 15.73261730  3692
STARLINK-3281           
1 50183U 21125AD  22031.91668981 -.00080066  00000+0 -57013-3 0  9994
2 50183  53.2178 145.8983 0002077  33.6241  62.0468 15.73252846  3695
STARLINK-3279           
1 50185U 21125AF  22031.91668981 -.00065251  00000+0 -46306-3 0  9998
2 50185  53.2165 145.9048 0002127  25.5570  68.2381 15.73249595  3696
STARLINK-3274           
1 50186U 21125AG  22031.91668981 -.00656960  00000+0 -12187-1 0  9990
2 50186  53.2171 147.2213 0001461  52.5794 118.1652 15.50751844  3697
STARLINK-3272           
1 50187U 21125AH  22031.91668981  .00018278  00000+0  13419-3 0  9994
2 50187  53.2170 145.8887 0002188  36.2075  66.9237 15.73230072  3695
STARLINK-3275           
1 50188U 21125AJ  22031.91668981 -.00062631  00000+0 -44416-3 0  9990
2 50188  53.2182 145.8865 0001976  26.4258  75.7830 15.73249826  3697
STARLINK-3276           
1 50189U 21125AK  22031.91668981 -.00066095  00000+0 -46892-3 0  9999
2 50189  53.2182 145.8944 0002273  28.2437  70.2367 15.73260654  3693
STARLINK-3268           
1 50190U 21125AL  22031.91668981  .00014058  00000+0  10430-3 0  9990
2 50190  53.2174 145.8758 0002374  29.2413  76.6953 15.73225052  3690
STARLINK-3273           
1 50191U 21125AM  22031.91668981 -.00655545  00000+0 -12534-1 0  9990
2 50191  53.2171 147.2191 0001459  47.8130  73.7659 15.49900070  3694
STARLINK-3259           
1 50192U 21125AN  22031.91668981 -.00068941  00000+0 -48960-3 0  9993
2 50192  53.2171 145.8732 0002325  31.1562  75.7468 15.73253919  3698
STARLINK-3261           
1 50193U 21125AP  22031.91668981  .00014918  00000+0  11051-3 0  9998
2 50193  53.2171 145.8786 0001897  25.7776  78.3333 15.73201937  3690
STARLINK-3269           
1 50194U 21125AQ  22031.91668981 -.00089177  00000+0 -63617-3 0  9995
2 50194  53.2167 145.8694 0002057  31.2431  76.6063 15.73253924  3697
STARLINK-3266           
1 50195U 21125AR  22031.91668981 -.00056709  00000+0 -40117-3 0  9991
2 50195  53.2163 145.8823 0002091  34.2738  70.7603 15.73265816  3697
STARLINK-3263           
1 50196U 21125AS  22031.91668981  .00015638  00000+0  11557-3 0  9992
2 50196  53.2170 145.8671 0002347  28.1523  81.5127 15.73212735  3687
STARLINK-3267           
1 50197U 21125AT  22031.91668981  .00016858  00000+0  12415-3 0  9992
2 50197  53.2179 145.8724 0002142  34.4105  74.3394 15.73226257  3696
